QIANFAN-25              
1 61558U 24185G   25333.27098757  .00000442  00000+0  26161-3 0  9994
2 61558  88.9809  79.7106 0009544   5.0848 355.0429 14.05889939 67610
QIANFAN-26              
1 61559U 24185H   25333.31325902  .00000158  00000+0  14486-3 0  9996
2 61559  88.9810  81.1966 0007008  64.7459 295.4433 13.77799489 66829
QIANFAN-27              
1 61560U 24185J   25333.28815820  .00000727  00000+0  29133-3 0  9994
2 61560  88.9805  78.5175 0006904 348.7427  11.3612 14.27306313 68249
QIANFAN-28              
1 61561U 24185K   25333.27686779  .00001027  00000+0  40828-3 0  9991
2 61561  88.9823  78.5210 0006135 349.4362  10.6703 14.27990602 68256
QIANFAN-29              
1 61562U 24185L   25333.25961451  .00000211  00000+0  30852-3 0  9993
2 61562  88.9787  82.7003 0011762  92.6929 267.5569 13.51003490 65976
QIANFAN-30              
1 61563U 24185M   25333.29837840  .00000266  00000+0  39920-3 0  9997
2 61563  88.9807  82.2166 0009160  81.0090 279.2097 13.49983372 66256
QIANFAN-31              
1 61564U 24185N   25333.27200996  .00000228  00000+0  29852-3 0  9993
2 61564  88.9791  82.0427 0008504  77.1547 283.0558 13.57958227 66335
QIANFAN-32              
1 61565U 24185P   25333.27424871  .00000209  00000+0  30606-3 0  9992
2 61565  88.9850  82.3490 0011262 102.8165 257.4245 13.50727835 66220
